{"type": "FeatureCollection", "features": [ {"type": "Feature", "properties": {"norad_id": 41774, "name": "SKYSAT-C3", "group": "resource", "lat": 70.35012578949183, "lon": -137.8115723034317, "alt_km": 424.9761659916203, "timestamp": "2025-12-14T14:39:29.033826+00:00", "meta": {"OBJECT_NAME": "SKYSAT-C3", "OBJECT_ID": "2016-058E", "EPOCH": "2025-12-14T00:11:45.043008", "MEAN_MOTION": 15.44453958, "ECCENTRICITY": 0.00017051, "INCLINATION": 96.9308, "RA_OF_ASC_NODE": 21.6953, "ARG_OF_PERICENTER": 107.5022, "MEAN_ANOMALY": 252.6414, "EPHEMERIS_TYPE": 0, "CLASSIFICATION_TYPE": "U", "NORAD_CAT_ID": 41774, "ELEMENT_SET_NO": 999, "REV_AT_EPOCH": 51745, "BSTAR": 0.00044156247, "MEAN_MOTION_DOT": 0.00020381, "MEAN_MOTION_DDOT": 0}, "tle": {"line1": "1 41774U 16058E   25348.00816022  .00020381  00000+0  44156-3 0  9990", "line2": "2 41774  96.9308  21.6953 0001705 107.5022 252.6414 15.44453958517450"}}, "geometry": {"type": "Point", "coordinates": [-137.8115723034317, 70.35012578949183]}}, {"type": "Feature", "properties": {"norad_id": 41785, "name": "ALSAT 1B", "group": "resource", "lat": -20.366273800081153, "lon": 177.41015094183453, "alt_km": 661.3297935079936, "timestamp": "2025-12-14T14:39:29.033836+00:00", "meta": {"OBJECT_NAME": "ALSAT 1B", "OBJECT_ID": "2016-059C", "EPOCH": "2025-12-14T00:42:02.492928", "MEAN_MOTION": 14.72078751, "ECCENTRICITY": 0.00107393, "INCLINATION": 97.782, "RA_OF_ASC_NODE": 359.7636, "ARG_OF_PERICENTER": 99.6049, "MEAN_ANOMALY": 260.6373, "EPHEMERIS_TYPE": 0, "CLASSIFICATION_TYPE": "U", "NORAD_CAT_ID": 41785, "ELEMENT_SET_NO": 999, "REV_AT_EPOCH": 49333, "BSTAR": 0.00016927482, "MEAN_MOTION_DOT": 1.018e-05, "MEAN_MOTION_DDOT": 0}, "tle": {"line1": "1 41785U 16059C   25348.02919552  .00001018  00000+0  16927-3 0  9998", "line2": "2 41785  97.7820 359.7636 0010739  99.6049 260.6373 14.72078751493337"}}, "geometry": {"type": "Point", "coordinates": [177.41015094183453, -20.366273800081153]}}, {"type": "Feature", "properties": {"norad_id": 41787, "name": "PATHFINDER 1", "group": "resource", "lat": -65.81587482231325, "lon": 153.49237797271937, "alt_km": 697.7848954244764, "timestamp": "2025-12-14T14:39:29.033846+00:00", "meta": {"OBJECT_NAME": "PATHFINDER 1", "OBJECT_ID": "2016-059E", "EPOCH": "2025-12-13T22:48:28.622592", "MEAN_MOTION": 14.67323702, "ECCENTRICITY": 0.00300153, "INCLINATION": 97.8139, "RA_OF_ASC_NODE": 350.6677, "ARG_OF_PERICENTER": 77.5558, "MEAN_ANOMALY": 282.9004, "EPHEMERIS_TYPE": 0, "CLASSIFICATION_TYPE": "U", "NORAD_CAT_ID": 41787, "ELEMENT_SET_NO": 999, "REV_AT_EPOCH": 49254, "BSTAR": 0.00020794649, "MEAN_MOTION_DOT": 1.135e-05, "MEAN_MOTION_DDOT": 0}, "tle": {"line1": "1 41787U 16059E   25347.95033128  .00001135  00000+0  20795-3 0  9995", "line2": "2 41787  97.8139 350.6677 0030015  77.5558 282.9004 14.67323702492540"}}, "geometry": {"type": "Point", "coordinates": [153.49237797271937, -65.81587482231325]}}, {"type": "Feature", "properties": {"norad_id": 41790, "name": "SCATSAT 1", "group": "resource", "lat": -42.014318937745514, "lon": 52.718872923195306, "alt_km": 677.3067292604646, "timestamp": "2025-12-14T14:39:29.033856+00:00", "meta": {"OBJECT_NAME": "SCATSAT 1", "OBJECT_ID": "2016-059H", "EPOCH": "2025-12-13T22:36:50.758560", "MEAN_MOTION": 14.78942845, "ECCENTRICITY": 0.00563182, "INCLINATION": 98.1466, "RA_OF_ASC_NODE": 44.6276, "ARG_OF_PERICENTER": 124.189, "MEAN_ANOMALY": 236.4677, "EPHEMERIS_TYPE": 0, "CLASSIFICATION_TYPE": "U", "NORAD_CAT_ID": 41790, "ELEMENT_SET_NO": 999, "REV_AT_EPOCH": 7420, "BSTAR": 0.00029681332, "MEAN_MOTION_DOT": 2.192e-05, "MEAN_MOTION_DDOT": 0}, "tle": {"line1": "1 41790U 16059H   25347.94225415  .00002192  00000+0  29681-3 0  9997", "line2": "2 41790  98.1466  44.6276 0056318 124.1890 236.4677 14.78942845 74204"}}, "geometry": {"type": "Point", "coordinates": [52.718872923195306, -42.014318937745514]}}, {"type": "Feature", "properties": {"norad_id": 41875, "name": "GOKTURK 1A", "group": "resource", "lat": -65.1414149745321, "lon": -101.04896155841818, "alt_km": 692.1176414043475, "timestamp": "2025-12-14T14:39:29.033867+00:00", "meta": {"OBJECT_NAME": "GOKTURK 1A", "OBJECT_ID": "2016-073A", "EPOCH": "2025-12-14T00:11:10.250592", "MEAN_MOTION": 14.62782704, "ECCENTRICITY": 0.00012385, "INCLINATION": 98.1424, "RA_OF_ASC_NODE": 240.3561, "ARG_OF_PERICENTER": 78.6035, "MEAN_ANOMALY": 281.5306, "EPHEMERIS_TYPE": 0, "CLASSIFICATION_TYPE": "U", "NORAD_CAT_ID": 41875, "ELEMENT_SET_NO": 999, "REV_AT_EPOCH": 48175, "BSTAR": 0.00018824268, "MEAN_MOTION_DOT": 9.13e-06, "MEAN_MOTION_DDOT": 0}, "tle": {"line1": "1 41875U 16073A   25348.00775753  .00000913  00000+0  18824-3 0  9996", "line2": "2 41875  98.1424 240.3561 0001238  78.6035 281.5306 14.62782704481750"}}, "geometry": {"type": "Point", "coordinates": [-101.04896155841818, -65.1414149745321]}}, {"type": "Feature", "properties": {"norad_id": 41877, "name": "RESOURCESAT-2A", "group": "resource", "lat": 64.12573320125726, "lon": 39.884948893495455, "alt_km": 814.4979234096663, "timestamp": "2025-12-14T14:39:29.033877+00:00", "meta": {"OBJECT_NAME": "RESOURCESAT-2A", "OBJECT_ID": "2016-074A", "EPOCH": "2025-12-14T00:50:13.939584", "MEAN_MOTION": 14.21600979, "ECCENTRICITY": 0.00011756, "INCLINATION": 98.7752, "RA_OF_ASC_NODE": 57.8829, "ARG_OF_PERICENTER": 248.6571, "MEAN_ANOMALY": 111.448, "EPHEMERIS_TYPE": 0, "CLASSIFICATION_TYPE": "U", "NORAD_CAT_ID": 41877, "ELEMENT_SET_NO": 999, "REV_AT_EPOCH": 46799, "BSTAR": 0.00022465258, "MEAN_MOTION_DOT": 4.48e-06, "MEAN_MOTION_DDOT": 0}, "tle": {"line1": "1 41877U 16074A   25348.03488356  .00000448  00000+0  22465-3 0  9991", "line2": "2 41877  98.7752  57.8829 0001175 248.6571 111.4480 14.21600979467996"}}, "geometry": {"type": "Point", "coordinates": [39.884948893495455, 64.12573320125726]}}, {"type": "Feature", "properties": {"norad_id": 41948, "name": "CARTOSAT-2D", "group": "resource", "lat": 8.47400155132905, "lon": 44.96366955641637, "alt_km": 512.6702517431095, "timestamp": "2025-12-14T14:39:29.033887+00:00", "meta": {"OBJECT_NAME": "CARTOSAT-2D", "OBJECT_ID": "2017-008A", "EPOCH": "2025-12-14T00:23:39.086304", "MEAN_MOTION": 15.19277954, "ECCENTRICITY": 0.00047903, "INCLINATION": 97.4395, "RA_OF_ASC_NODE": 45.4938, "ARG_OF_PERICENTER": 157.3013, "MEAN_ANOMALY": 202.8434, "EPHEMERIS_TYPE": 0, "CLASSIFICATION_TYPE": "U", "NORAD_CAT_ID": 41948, "ELEMENT_SET_NO": 999, "REV_AT_EPOCH": 48946, "BSTAR": 0.00028402035, "MEAN_MOTION_DOT": 5.925e-05, "MEAN_MOTION_DDOT": 0}, "tle": {"line1": "1 41948U 17008A   25348.01642461  .00005925  00000+0  28402-3 0  9997", "line2": "2 41948  97.4395  45.4938 0004790 157.3013 202.8434 15.19277954489462"}}, "geometry": {"type": "Point", "coordinates": [44.96366955641637, 8.47400155132905]}}, {"type": "Feature", "properties": {"norad_id": 42063, "name": "SENTINEL-2B", "group": "resource", "lat": 79.45447623845594, "lon": -64.86026973392924, "alt_km": 780.7758724314554, "timestamp": "2025-12-14T14:39:29.033897+00:00", "meta": {"OBJECT_NAME": "SENTINEL-2B", "OBJECT_ID": "2017-013A", "EPOCH": "2025-12-13T23:06:19.960992", "MEAN_MOTION": 14.30817173, "ECCENTRICITY": 0.00011717, "INCLINATION": 98.5711, "RA_OF_ASC_NODE": 60.3911, "ARG_OF_PERICENTER": 93.3771, "MEAN_ANOMALY": 266.7546, "EPHEMERIS_TYPE": 0, "CLASSIFICATION_TYPE": "U", "NORAD_CAT_ID": 42063, "ELEMENT_SET_NO": 999, "REV_AT_EPOCH": 45815, "BSTAR": 0.00015504776, "MEAN_MOTION_DOT": 3.63e-06, "MEAN_MOTION_DDOT": 0}, "tle": {"line1": "1 42063U 17013A   25347.96273103  .00000363  00000+0  15505-3 0  9999", "line2": "2 42063  98.5711  60.3911 0001171  93.3771 266.7546 14.30817173458152"}}, "geometry": {"type": "Point", "coordinates": [-64.86026973392924, 79.45447623845594]}}, {"type": "Feature", "properties": {"norad_id": 42767, "name": "CARTOSAT-2E", "group": "resource", "lat": -78.24378157537451, "lon": 85.17074927479524, "alt_km": 514.5904840919866, "timestamp": "2025-12-14T14:39:29.033908+00:00", "meta": {"OBJECT_NAME": "CARTOSAT-2E", "OBJECT_ID": "2017-036C", "EPOCH": "2025-12-13T23:12:21.754944", "MEAN_MOTION": 15.19216829, "ECCENTRICITY": 0.00020323, "INCLINATION": 97.4561, "RA_OF_ASC_NODE": 45.5373, "ARG_OF_PERICENTER": 233.7363, "MEAN_ANOMALY": 126.3684, "EPHEMERIS_TYPE": 0, "CLASSIFICATION_TYPE": "U", "NORAD_CAT_ID": 42767, "ELEMENT_SET_NO": 999, "REV_AT_EPOCH": 47002, "BSTAR": 0.00032935872, "MEAN_MOTION_DOT": 6.869e-05, "MEAN_MOTION_DDOT": 0}, "tle": {"line1": "1 42767U 17036C   25347.96691846  .00006869  00000+0  32936-3 0  9997", "line2": "2 42767  97.4561  45.5373 0002032 233.7363 126.3684 15.19216829470028"}}, "geometry": {"type": "Point", "coordinates": [85.17074927479524, -78.24378157537451]}}, {"type": "Feature", "properties": {"norad_id": 42920, "name": "FORMOSAT-5", "group": "resource", "lat": -53.16238335584886, "lon": -128.26840750991857, "alt_km": 725.3649782138145, "timestamp": "2025-12-14T14:39:29.033919+00:00", "meta": {"OBJECT_NAME": "FORMOSAT-5", "OBJECT_ID": "2017-049A", "EPOCH": "2025-12-13T22:41:14.905824", "MEAN_MOTION": 14.51006362, "ECCENTRICITY": 0.00098532, "INCLINATION": 98.2453, "RA_OF_ASC_NODE": 62.2404, "ARG_OF_PERICENTER": 291.3675, "MEAN_ANOMALY": 68.6468, "EPHEMERIS_TYPE": 0, "CLASSIFICATION_TYPE": "U", "NORAD_CAT_ID": 42920, "ELEMENT_SET_NO": 999, "REV_AT_EPOCH": 43981, "BSTAR": 9.7827222e-05, "MEAN_MOTION_DOT": 3.43e-06, "MEAN_MOTION_DDOT": 0}, "tle": {"line1": "1 42920U 17049A   25347.94531141  .00000343  00000+0  97827-4 0  9993", "line2": "2 42920  98.2453  62.2404 0009853 291.3675  68.6468 14.51006362439817"}}, "geometry": {"type": "Point", "coordinates": [-128.26840750991857, -53.16238335584886]}}]}